start=new Date('2022-07-19T00:00:00.000Z').valueOf();
sats=[{"CENTER_NAME":"EARTH","LAUNCH_DATE":"2021-03-14","SEMIMAJOR_AXIS":"6925.416","ECCENTRICITY":"0.00016460","TIME_SYSTEM":"UTC","EPOCH":"2022-07-18T12:14:08.346912","MEAN_MOTION_DOT":"0.00002077","MEAN_MOTION_DDOT":"0.0000000000000","PERIOD":"95.594","RA_OF_ASC_NODE":"123.0415","PERIAPSIS":"546.141","EPHEMERIS_TYPE":"0","SITE":"AFETR","RCS_SIZE":"LARGE","REF_FRAME":"TEME","DECAY_DATE":null,"REV_AT_EPOCH":"7522","MEAN_ANOMALY":"291.4232","NORAD_CAT_ID":"47894","BSTAR":"0.00015838000000","CLASSIFICATION_TYPE":"U","GP_ID":"208379375","ARG_OF_PERICENTER":"68.6933","FILE":"3516935","OBJECT_ID":"2021-021AL","MEAN_ELEMENT_THEORY":"SGP4","INCLINATION":"53.0554","APOAPSIS":"548.421","ELEMENT_SET_NO":"999","MEAN_MOTION":"15.06378030","COUNTRY_CODE":"US","TLE_LINE1":"1 47894U 21021AL  22199.50981883  .00002077  00000-0  15838-3 0  9997","OBJECT_NAME":"STARLINK-2354","OBJECT_TYPE":"PAYLOAD","TLE_LINE2":"2 47894  53.0554 123.0415 0001646  68.6933 291.4232 15.06378030 75226"},{"OBJECT_NAME":"STARLINK-2355","OBJECT_TYPE":"PAYLOAD","TLE_LINE1":"1 47895U 21021AM  22199.52086155  .00000426  00000-0  47500-4 0  9996","TLE_LINE2":"2 47895  53.0536 122.9846 0001526  71.8744 288.2411 15.06403670 75688","INCLINATION":"53.0536","OBJECT_ID":"2021-021AM","MEAN_ELEMENT_THEORY":"SGP4","FILE":"3516915","ARG_OF_PERICENTER":"71.8744","ELEMENT_SET_NO":"999","APOAPSIS":"548.259","MEAN_MOTION":"15.06403670","COUNTRY_CODE":"US","REV_AT_EPOCH":"7568","DECAY_DATE":null,"REF_FRAME":"TEME","RCS_SIZE":"LARGE","NORAD_CAT_ID":"47895","MEAN_ANOMALY":"288.2411","CLASSIFICATION_TYPE":"U","GP_ID":"208374815","BSTAR":"0.00004750000000","ECCENTRICITY":"0.00015260","LAUNCH_DATE":"2021-03-14","SEMIMAJOR_AXIS":"6925.337","CENTER_NAME":"EARTH","MEAN_MOTION_DDOT":"0.0000000000000","MEAN_MOTION_DOT":"0.00000426","TIME_SYSTEM":"UTC","EPOCH":"2022-07-18T12:30:02.437920","PERIAPSIS":"546.146","RA_OF_ASC_NODE":"122.9846","PERIOD":"95.592","SITE":"AFETR","EPHEMERIS_TYPE":"0"},{"MEAN_MOTION":"15.06396228","COUNTRY_CODE":"US","INCLINATION":"53.0542","OBJECT_ID":"2021-021AN","MEAN_ELEMENT_THEORY":"SGP4","ARG_OF_PERICENTER":"54.3860","FILE":"3516915","ELEMENT_SET_NO":"999","APOAPSIS":"548.425","TLE_LINE2":"2 47896  53.0542 139.2106 0001732  54.3860 305.7290 15.06396228 75400","OBJECT_NAME":"STARLINK-2356","OBJECT_TYPE":"PAYLOAD","TLE_LINE1":"1 47896U 21021AN  22199.24856962 -.00002184  00000-0 -12778-3 0  9990","PERIAPSIS":"546.026","RA_OF_ASC_NODE":"139.2106","PERIOD":"95.592","SITE":"AFETR","EPHEMERIS_TYPE":"0","SEMIMAJOR_AXIS":"6925.360","LAUNCH_DATE":"2021-03-14","ECCENTRICITY":"0.00017320","CENTER_NAME":"EARTH","MEAN_MOTION_DDOT":"0.0000000000000","MEAN_MOTION_DOT":"-0.00002184","TIME_SYSTEM":"UTC","EPOCH":"2022-07-18T05:57:56.415168","NORAD_CAT_ID":"47896","MEAN_ANOMALY":"305.7290","CLASSIFICATION_TYPE":"U","GP_ID":"208375564","BSTAR":"-0.00012778000000","REV_AT_EPOCH":"7540","DECAY_DATE":null,"REF_FRAME":"TEME","RCS_SIZE":"LARGE"},{"TLE_LINE2":"2 47897  53.0567 122.9720 0001584  67.0675 293.0481 15.06402662 75220","OBJECT_TYPE":"PAYLOAD","OBJECT_NAME":"STARLINK-2357","TLE_LINE1":"1 47897U 21021AP  22199.51991659 -.00000953  00000-0 -45108-4 0  9990","MEAN_MOTION":"15.06402662","COUNTRY_CODE":"US","MEAN_ELEMENT_THEORY":"SGP4","OBJECT_ID":"2021-021AP","FILE":"3516947","ARG_OF_PERICENTER":"67.0675","INCLINATION":"53.0567","APOAPSIS":"548.302","ELEMENT_SET_NO":"999","MEAN_ANOMALY":"293.0481","NORAD_CAT_ID":"47897","BSTAR":"-0.00004510800000","GP_ID":"208379387","CLASSIFICATION_TYPE":"U","RCS_SIZE":"LARGE","REF_FRAME":"TEME","REV_AT_EPOCH":"7522","DECAY_DATE":null,"RA_OF_ASC_NODE":"122.9720","PERIOD":"95.592","PERIAPSIS":"546.108","SITE":"AFETR","EPHEMERIS_TYPE":"0","CENTER_NAME":"EARTH","LAUNCH_DATE":"2021-03-14","SEMIMAJOR_AXIS":"6925.340","ECCENTRICITY":"0.00015840","MEAN_MOTION_DOT":"-0.00000953","TIME_SYSTEM":"UTC","EPOCH":"2022-07-18T12:28:40.793376","MEAN_MOTION_DDOT":"0.0000000000000"},{"TLE_LINE2":"2 47898  53.0533 123.0231 0001494  69.9869 290.1281 15.06396771 75228","TLE_LINE1":"1 47898U 21021AQ  22199.51349676 -.00000100  00000-0  12161-4 0  9993","OBJECT_NAME":"STARLINK-2358","OBJECT_TYPE":"PAYLOAD","COUNTRY_CODE":"US","MEAN_MOTION":"15.06396771","ELEMENT_SET_NO":"999","APOAPSIS":"548.258","INCLINATION":"53.0533","ARG_OF_PERICENTER":"69.9869","FILE":"3516947","MEAN_ELEMENT_THEORY":"SGP4","OBJECT_ID":"2021-021AQ","GP_ID":"208379393","CLASSIFICATION_TYPE":"U","BSTAR":"0.00001216100000","NORAD_CAT_ID":"47898","MEAN_ANOMALY":"290.1281","DECAY_DATE":null,"REV_AT_EPOCH":"7522","REF_FRAME":"TEME","RCS_SIZE":"LARGE","EPHEMERIS_TYPE":"0","SITE":"AFETR","PERIAPSIS":"546.189","PERIOD":"95.592","RA_OF_ASC_NODE":"123.0231","MEAN_MOTION_DDOT":"0.0000000000000","EPOCH":"2022-07-18T12:19:26.120064","TIME_SYSTEM":"UTC","MEAN_MOTION_DOT":"-0.00000100","LAUNCH_DATE":"2021-03-14","SEMIMAJOR_AXIS":"6925.358","ECCENTRICITY":"0.00014940","CENTER_NAME":"EARTH"},{"REF_FRAME":"TEME","RCS_SIZE":"LARGE","DECAY_DATE":null,"REV_AT_EPOCH":"7580","BSTAR":"-0.00001281900000","GP_ID":"208375310","CLASSIFICATION_TYPE":"U","MEAN_ANOMALY":"287.8887","NORAD_CAT_ID":"47899","MEAN_MOTION_DOT":"-0.00000472","TIME_SYSTEM":"UTC","EPOCH":"2022-07-18T04:16:23.668608","MEAN_MOTION_DDOT":"0.0000000000000","CENTER_NAME":"EARTH","LAUNCH_DATE":"2021-03-14","SEMIMAJOR_AXIS":"6925.373","ECCENTRICITY":"0.00014110","SITE":"AFETR","EPHEMERIS_TYPE":"0","RA_OF_ASC_NODE":"114.5058","PERIOD":"95.593","PERIAPSIS":"546.261","OBJECT_TYPE":"PAYLOAD","OBJECT_NAME":"STARLINK-2359","TLE_LINE1":"1 47899U 21021AR  22199.17805172 -.00000472  00000-0 -12819-4 0  9997","TLE_LINE2":"2 47899  53.0545 114.5058 0001411  72.2255 287.8887 15.06392059 75803","APOAPSIS":"548.215","ELEMENT_SET_NO":"999","OBJECT_ID":"2021-021AR","MEAN_ELEMENT_THEORY":"SGP4","ARG_OF_PERICENTER":"72.2255","FILE":"3516915","INCLINATION":"53.0545","COUNTRY_CODE":"US","MEAN_MOTION":"15.06392059"},{"MEAN_ANOMALY":"296.2206","NORAD_CAT_ID":"47900","BSTAR":"-0.00001859600000","CLASSIFICATION_TYPE":"U","GP_ID":"208405997","REF_FRAME":"TEME","RCS_SIZE":"LARGE","REV_AT_EPOCH":"7576","DECAY_DATE":null,"RA_OF_ASC_NODE":"121.4367","PERIOD":"95.593","PERIAPSIS":"546.113","SITE":"AFETR","EPHEMERIS_TYPE":"0","CENTER_NAME":"EARTH","LAUNCH_DATE":"2021-03-14","SEMIMAJOR_AXIS":"6925.377","ECCENTRICITY":"0.00016290","MEAN_MOTION_DOT":"-0.00000558","TIME_SYSTEM":"UTC","EPOCH":"2022-07-18T20:47:37.770432","MEAN_MOTION_DDOT":"0.0000000000000","TLE_LINE2":"2 47900  53.0548 121.4367 0001629  63.8951 296.2206 15.06390881 75764","OBJECT_TYPE":"PAYLOAD","OBJECT_NAME":"STARLINK-2360","TLE_LINE1":"1 47900U 21021AS  22199.86640938 -.00000558  00000-0 -18596-4 0  9996","MEAN_MOTION":"15.06390881","COUNTRY_CODE":"US","MEAN_ELEMENT_THEORY":"SGP4","OBJECT_ID":"2021-021AS","ARG_OF_PERICENTER":"63.8951","FILE":"3517175","INCLINATION":"53.0548","APOAPSIS":"548.370","ELEMENT_SET_NO":"999"},{"NORAD_CAT_ID":"47901","MEAN_ANOMALY":"287.2281","CLASSIFICATION_TYPE":"U","GP_ID":"208406246","BSTAR":"0.00052348000000","DECAY_DATE":null,"REV_AT_EPOCH":"7589","RCS_SIZE":"LARGE","REF_FRAME":"TEME","PERIAPSIS":"546.146","RA_OF_ASC_NODE":"111.3805","PERIOD":"95.592","SITE":"AFETR","EPHEMERIS_TYPE":"0","LAUNCH_DATE":"2021-03-14","ECCENTRICITY":"0.00015080","SEMIMAJOR_AXIS":"6925.325","CENTER_NAME":"EARTH","MEAN_MOTION_DDOT":"0.0000000000000","MEAN_MOTION_DOT":"0.00007526","TIME_SYSTEM":"UTC","EPOCH":"2022-07-18T21:32:47.217408","TLE_LINE2":"2 47901  53.0543 111.3805 0001508  72.8873 287.2281 15.06407737 75890","OBJECT_TYPE":"PAYLOAD","OBJECT_NAME":"STARLINK-2361","TLE_LINE1":"1 47901U 21021AT  22199.89776872  .00007526  00000-0  52348-3 0  9999","MEAN_MOTION":"15.06407737","COUNTRY_CODE":"US","INCLINATION":"53.0543","OBJECT_ID":"2021-021AT","MEAN_ELEMENT_THEORY":"SGP4","FILE":"3517175","ARG_OF_PERICENTER":"72.8873","ELEMENT_SET_NO":"999","APOAPSIS":"548.234"},{"NORAD_CAT_ID":"47902","MEAN_ANOMALY":"282.8549","GP_ID":"208406498","CLASSIFICATION_TYPE":"U","BSTAR":"-0.00002912300000","DECAY_DATE":null,"REV_AT_EPOCH":"7571","RCS_SIZE":"LARGE","REF_FRAME":"TEME","PERIAPSIS":"546.188","PERIOD":"95.593","RA_OF_ASC_NODE":"131.6588","EPHEMERIS_TYPE":"0","SITE":"AFETR","LAUNCH_DATE":"2021-03-14","SEMIMAJOR_AXIS":"6925.367","ECCENTRICITY":"0.00015070","CENTER_NAME":"EARTH","MEAN_MOTION_DDOT":"0.0000000000000","EPOCH":"2022-07-18T19:33:20.566368","TIME_SYSTEM":"UTC","MEAN_MOTION_DOT":"-0.00000715","TLE_LINE2":"2 47902  53.0544 131.6588 0001507  77.2609 282.8549 15.06394106 75714","TLE_LINE1":"1 47902U 21021AU  22199.81482137 -.00000715  00000-0 -29123-4 0  9991","OBJECT_NAME":"STARLINK-2362","OBJECT_TYPE":"PAYLOAD","MEAN_MOTION":"15.06394106","COUNTRY_CODE":"US","INCLINATION":"53.0544","ARG_OF_PERICENTER":"77.2609","FILE":"3517175","MEAN_ELEMENT_THEORY":"SGP4","OBJECT_ID":"2021-021AU","ELEMENT_SET_NO":"999","APOAPSIS":"548.275"},{"ECCENTRICITY":"0.00015670","LAUNCH_DATE":"2021-03-14","SEMIMAJOR_AXIS":"6925.335","CENTER_NAME":"EARTH","MEAN_MOTION_DDOT":"0.0000000000000","EPOCH":"2022-07-18T21:42:01.364544","TIME_SYSTEM":"UTC","MEAN_MOTION_DOT":"0.00005677","PERIAPSIS":"546.115","PERIOD":"95.592","RA_OF_ASC_NODE":"111.2508","EPHEMERIS_TYPE":"0","SITE":"AFETR","REV_AT_EPOCH":"7624","DECAY_DATE":null,"RCS_SIZE":"LARGE","REF_FRAME":"TEME","NORAD_CAT_ID":"47903","MEAN_ANOMALY":"295.1706","GP_ID":"208406736","CLASSIFICATION_TYPE":"U","BSTAR":"0.00039965000000","INCLINATION":"53.0543","ARG_OF_PERICENTER":"64.9446","FILE":"3517175","OBJECT_ID":"2021-021AV","MEAN_ELEMENT_THEORY":"SGP4","ELEMENT_SET_NO":"999","APOAPSIS":"548.285","MEAN_MOTION":"15.06404449","COUNTRY_CODE":"US","TLE_LINE1":"1 47903U 21021AV  22199.90418246  .00005677  00000-0  39965-3 0  9996","OBJECT_TYPE":"PAYLOAD","OBJECT_NAME":"STARLINK-2363","TLE_LINE2":"2 47903  53.0543 111.2508 0001567  64.9446 295.1706 15.06404449 76241"}];
